[{"OBJECT_NAME":"STARLINK-2273","OBJECT_ID":"2021-024S","EPOCH":"2026-03-10T00:00:02.999808","MEAN_MOTION":15.21044249,"ECCENTRICITY":7.23e-5,"INCLINATION":53.1152,"RA_OF_ASC_NODE":294.6507,"ARG_OF_PERICENTER":119.4489,"MEAN_ANOMALY":235.3564,"EPHEMERIS_TYPE":0,"CLASSIFICATION_TYPE":"U","NORAD_CAT_ID":47993,"ELEMENT_SET_NO":999,"REV_AT_EPOCH":569,"BSTAR":0.0044234454,"MEAN_MOTION_DOT":0.0010051,"MEAN_MOTION_DDOT":0},{"OBJECT_NAME":"PEGASUS R\/B","OBJECT_ID":"2000-030B","EPOCH":"2026-03-09T21:30:54.786816","MEAN_MOTION":14.17736627,"ECCENTRICITY":0.05948351,"INCLINATION":68.9475,"RA_OF_ASC_NODE":2.7595,"ARG_OF_PERICENTER":199.9382,"MEAN_ANOMALY":157.758,"EPHEMERIS_TYPE":0,"CLASSIFICATION_TYPE":"U","NORAD_CAT_ID":26375,"ELEMENT_SET_NO":999,"REV_AT_EPOCH":65081,"BSTAR":0.0003863695,"MEAN_MOTION_DOT":4.875e-5,"MEAN_MOTION_DDOT":0}]
